{"type": "FeatureCollection", "features": [ {"type": "Feature", "properties": {"norad_id": 31615, "name": "FENGYUN 1C DEB", "group": "fengyun-1c-debris", "lat": 65.89922591833422, "lon": -113.7144794454645, "alt_km": 885.537587014318, "timestamp": "2025-12-19T08:58:49.621571+00:00", "meta": {"OBJECT_NAME": "FENGYUN 1C DEB", "OBJECT_ID": "1999-025BZV", "EPOCH": "2025-12-18T09:01:53.872608", "MEAN_MOTION": 14.35447371, "ECCENTRICITY": 0.01662951, "INCLINATION": 99.1382, "RA_OF_ASC_NODE": 44.1395, "ARG_OF_PERICENTER": 300.1486, "MEAN_ANOMALY": 58.3309, "EPHEMERIS_TYPE": 0, "CLASSIFICATION_TYPE": "U", "NORAD_CAT_ID": 31615, "ELEMENT_SET_NO": 999, "REV_AT_EPOCH": 65359, "BSTAR": 0.0026534563, "MEAN_MOTION_DOT": 8.876e-05, "MEAN_MOTION_DDOT": 0}, "tle": {"line1": "1 31615U 99025BZV 25352.37631797  .00008876  00000+0  26535-2 0  9992", "line2": "2 31615  99.1382  44.1395 0166295 300.1486  58.3309 14.35447371653592"}}, "geometry": {"type": "Point", "coordinates": [-113.7144794454645, 65.89922591833422]}}, {"type": "Feature", "properties": {"norad_id": 31618, "name": "FENGYUN 1C DEB", "group": "fengyun-1c-debris", "lat": -12.427276792738384, "lon": -45.3387335710704, "alt_km": 872.1561634965637, "timestamp": "2025-12-19T08:58:49.621580+00:00", "meta": {"OBJECT_NAME": "FENGYUN 1C DEB", "OBJECT_ID": "1999-025BZY", "EPOCH": "2025-12-18T15:09:53.301888", "MEAN_MOTION": 14.21028975, "ECCENTRICITY": 0.01569221, "INCLINATION": 99.4434, "RA_OF_ASC_NODE": 135.9699, "ARG_OF_PERICENTER": 309.3748, "MEAN_ANOMALY": 49.3614, "EPHEMERIS_TYPE": 0, "CLASSIFICATION_TYPE": "U", "NORAD_CAT_ID": 31618, "ELEMENT_SET_NO": 999, "REV_AT_EPOCH": 70348, "BSTAR": 0.00025004223, "MEAN_MOTION_DOT": 5.62e-06, "MEAN_MOTION_DDOT": 0}, "tle": {"line1": "1 31618U 99025BZY 25352.63186692  .00000562  00000+0  25004-3 0  9998", "line2": "2 31618  99.4434 135.9699 0156922 309.3748  49.3614 14.21028975703483"}}, "geometry": {"type": "Point", "coordinates": [-45.3387335710704, -12.427276792738384]}}, {"type": "Feature", "properties": {"norad_id": 31619, "name": "FENGYUN 1C DEB", "group": "fengyun-1c-debris", "lat": -57.27523966056287, "lon": -7.531677547118609, "alt_km": 563.5128323958215, "timestamp": "2025-12-19T08:58:49.621590+00:00", "meta": {"OBJECT_NAME": "FENGYUN 1C DEB", "OBJECT_ID": "1999-025BZZ", "EPOCH": "2025-12-17T23:34:56.000640", "MEAN_MOTION": 14.85928466, "ECCENTRICITY": 0.00947023, "INCLINATION": 99.0713, "RA_OF_ASC_NODE": 185.2794, "ARG_OF_PERICENTER": 278.4468, "MEAN_ANOMALY": 80.6018, "EPHEMERIS_TYPE": 0, "CLASSIFICATION_TYPE": "U", "NORAD_CAT_ID": 31619, "ELEMENT_SET_NO": 999, "REV_AT_EPOCH": 63566, "BSTAR": 0.0035881114, "MEAN_MOTION_DOT": 0.00034026, "MEAN_MOTION_DDOT": 0}, "tle": {"line1": "1 31619U 99025BZZ 25351.98259260  .00034026  00000+0  35881-2 0  9993", "line2": "2 31619  99.0713 185.2794 0094702 278.4468  80.6018 14.85928466635660"}}, "geometry": {"type": "Point", "coordinates": [-7.531677547118609, -57.27523966056287]}}, {"type": "Feature", "properties": {"norad_id": 31620, "name": "FENGYUN 1C DEB", "group": "fengyun-1c-debris", "lat": 37.26438699315022, "lon": -95.48724031335344, "alt_km": 771.7775227454404, "timestamp": "2025-12-19T08:58:49.621600+00:00", "meta": {"OBJECT_NAME": "FENGYUN 1C DEB", "OBJECT_ID": "1999-025CAA", "EPOCH": "2025-12-18T12:16:26.023584", "MEAN_MOTION": 14.37303737, "ECCENTRICITY": 0.00195289, "INCLINATION": 98.8873, "RA_OF_ASC_NODE": 76.7848, "ARG_OF_PERICENTER": 23.9081, "MEAN_ANOMALY": 336.3007, "EPHEMERIS_TYPE": 0, "CLASSIFICATION_TYPE": "U", "NORAD_CAT_ID": 31620, "ELEMENT_SET_NO": 999, "REV_AT_EPOCH": 65927, "BSTAR": 0.0019950798, "MEAN_MOTION_DOT": 5.921e-05, "MEAN_MOTION_DDOT": 0}, "tle": {"line1": "1 31620U 99025CAA 25352.51141231  .00005921  00000+0  19951-2 0  9995", "line2": "2 31620  98.8873  76.7848 0019528  23.9081 336.3007 14.37303737659274"}}, "geometry": {"type": "Point", "coordinates": [-95.48724031335344, 37.26438699315022]}}, {"type": "Feature", "properties": {"norad_id": 31622, "name": "FENGYUN 1C DEB", "group": "fengyun-1c-debris", "lat": 53.48557814989069, "lon": -79.58873965163394, "alt_km": 773.0132323384169, "timestamp": "2025-12-19T08:58:49.621610+00:00", "meta": {"OBJECT_NAME": "FENGYUN 1C DEB", "OBJECT_ID": "1999-025CAC", "EPOCH": "2025-12-18T18:03:56.113056", "MEAN_MOTION": 14.372429, "ECCENTRICITY": 0.00152057, "INCLINATION": 98.8164, "RA_OF_ASC_NODE": 87.6738, "ARG_OF_PERICENTER": 322.7946, "MEAN_ANOMALY": 189.0606, "EPHEMERIS_TYPE": 0, "CLASSIFICATION_TYPE": "U", "NORAD_CAT_ID": 31622, "ELEMENT_SET_NO": 999, "REV_AT_EPOCH": 95858, "BSTAR": 0.001405287, "MEAN_MOTION_DOT": 4.147e-05, "MEAN_MOTION_DDOT": 0}, "tle": {"line1": "1 31622U 99025CAC 25352.75273279  .00004147  00000+0  14053-2 0  9998", "line2": "2 31622  98.8164  87.6738 0015205 322.7946 189.0606 14.37242900958584"}}, "geometry": {"type": "Point", "coordinates": [-79.58873965163394, 53.48557814989069]}}, {"type": "Feature", "properties": {"norad_id": 31623, "name": "FENGYUN 1C DEB", "group": "fengyun-1c-debris", "lat": -15.157834706707751, "lon": 21.621641111624346, "alt_km": 1085.6022780053609, "timestamp": "2025-12-19T08:58:49.621620+00:00", "meta": {"OBJECT_NAME": "FENGYUN 1C DEB", "OBJECT_ID": "1999-025CAD", "EPOCH": "2025-12-02T20:02:22.350624", "MEAN_MOTION": 13.82580933, "ECCENTRICITY": 0.01951152, "INCLINATION": 97.6304, "RA_OF_ASC_NODE": 190.283, "ARG_OF_PERICENTER": 33.7651, "MEAN_ANOMALY": 327.5758, "EPHEMERIS_TYPE": 0, "CLASSIFICATION_TYPE": "U", "NORAD_CAT_ID": 31623, "ELEMENT_SET_NO": 999, "REV_AT_EPOCH": 57783, "BSTAR": 0.00047153491, "MEAN_MOTION_DOT": 5.61e-06, "MEAN_MOTION_DDOT": 0}, "tle": {"line1": "1 31623U 99025CAD 25336.83498091  .00000561  00000+0  47153-3 0  9995", "line2": "2 31623  97.6304 190.2830 0195115  33.7651 327.5758 13.82580933577835"}}, "geometry": {"type": "Point", "coordinates": [21.621641111624346, -15.157834706707751]}}, {"type": "Feature", "properties": {"norad_id": 31625, "name": "FENGYUN 1C DEB", "group": "fengyun-1c-debris", "lat": 0.4759740974310226, "lon": -100.16741596858625, "alt_km": 816.2622005330932, "timestamp": "2025-12-19T08:58:49.621630+00:00", "meta": {"OBJECT_NAME": "FENGYUN 1C DEB", "OBJECT_ID": "1999-025CAF", "EPOCH": "2025-12-18T17:59:55.171968", "MEAN_MOTION": 14.55407543, "ECCENTRICITY": 0.0148944, "INCLINATION": 98.8059, "RA_OF_ASC_NODE": 79.1008, "ARG_OF_PERICENTER": 357.4885, "MEAN_ANOMALY": 153.2333, "EPHEMERIS_TYPE": 0, "CLASSIFICATION_TYPE": "U", "NORAD_CAT_ID": 31625, "ELEMENT_SET_NO": 999, "REV_AT_EPOCH": 98480, "BSTAR": 0.00011221206, "MEAN_MOTION_DOT": 5.05e-06, "MEAN_MOTION_DDOT": 0}, "tle": {"line1": "1 31625U 99025CAF 25352.74994412  .00000505  00000+0  11221-3 0  9998", "line2": "2 31625  98.8059  79.1008 0148944 357.4885 153.2333 14.55407543984800"}}, "geometry": {"type": "Point", "coordinates": [-100.16741596858625, 0.4759740974310226]}}, {"type": "Feature", "properties": {"norad_id": 31627, "name": "FENGYUN 1C DEB", "group": "fengyun-1c-debris", "lat": -60.037497428681455, "lon": 56.2665055984773, "alt_km": 815.8428405467439, "timestamp": "2025-12-19T08:58:49.621640+00:00", "meta": {"OBJECT_NAME": "FENGYUN 1C DEB", "OBJECT_ID": "1999-025CAH", "EPOCH": "2025-11-26T09:13:22.975680", "MEAN_MOTION": 14.35408996, "ECCENTRICITY": 0.00515931, "INCLINATION": 98.5313, "RA_OF_ASC_NODE": 18.4415, "ARG_OF_PERICENTER": 201.9005, "MEAN_ANOMALY": 157.9975, "EPHEMERIS_TYPE": 0, "CLASSIFICATION_TYPE": "U", "NORAD_CAT_ID": 31627, "ELEMENT_SET_NO": 999, "REV_AT_EPOCH": 64532, "BSTAR": 0.0013473839, "MEAN_MOTION_DOT": 3.885e-05, "MEAN_MOTION_DDOT": 0}, "tle": {"line1": "1 31627U 99025CAH 25330.38429370  .00003885  00000+0  13474-2 0  9997", "line2": "2 31627  98.5313  18.4415 0051593 201.9005 157.9975 14.35408996645325"}}, "geometry": {"type": "Point", "coordinates": [56.2665055984773, -60.037497428681455]}}, {"type": "Feature", "properties": {"norad_id": 31628, "name": "FENGYUN 1C DEB", "group": "fengyun-1c-debris", "lat": -2.0942486297344427, "lon": 29.797248843517412, "alt_km": 828.5131953980654, "timestamp": "2025-12-19T08:58:49.621650+00:00", "meta": {"OBJECT_NAME": "FENGYUN 1C DEB", "OBJECT_ID": "1999-025CAJ", "EPOCH": "2025-12-18T07:51:32.254560", "MEAN_MOTION": 13.86860771, "ECCENTRICITY": 0.01681262, "INCLINATION": 102.2709, "RA_OF_ASC_NODE": 208.8841, "ARG_OF_PERICENTER": 206.8364, "MEAN_ANOMALY": 152.4008, "EPHEMERIS_TYPE": 0, "CLASSIFICATION_TYPE": "U", "NORAD_CAT_ID": 31628, "ELEMENT_SET_NO": 999, "REV_AT_EPOCH": 93377, "BSTAR": 0.0017535761, "MEAN_MOTION_DOT": 2.221e-05, "MEAN_MOTION_DDOT": 0}, "tle": {"line1": "1 31628U 99025CAJ 25352.32745665  .00002221  00000+0  17536-2 0  9990", "line2": "2 31628 102.2709 208.8841 0168126 206.8364 152.4008 13.86860771933773"}}, "geometry": {"type": "Point", "coordinates": [29.797248843517412, -2.0942486297344427]}}, {"type": "Feature", "properties": {"norad_id": 31629, "name": "FENGYUN 1C DEB", "group": "fengyun-1c-debris", "lat": 15.554072533485515, "lon": 38.22324394127041, "alt_km": 769.4577721047935, "timestamp": "2025-12-19T08:58:49.621660+00:00", "meta": {"OBJECT_NAME": "FENGYUN 1C DEB", "OBJECT_ID": "1999-025CAK", "EPOCH": "2025-12-17T09:22:54.161760", "MEAN_MOTION": 14.14662382, "ECCENTRICITY": 0.01036677, "INCLINATION": 102.1337, "RA_OF_ASC_NODE": 38.97, "ARG_OF_PERICENTER": 15.3289, "MEAN_ANOMALY": 345.0973, "EPHEMERIS_TYPE": 0, "CLASSIFICATION_TYPE": "U", "NORAD_CAT_ID": 31629, "ELEMENT_SET_NO": 999, "REV_AT_EPOCH": 94512, "BSTAR": 0.0017444885, "MEAN_MOTION_DOT": 3.464e-05, "MEAN_MOTION_DDOT": 0}, "tle": {"line1": "1 31629U 99025CAK 25351.39090465  .00003464  00000+0  17445-2 0  9997", "line2": "2 31629 102.1337  38.9700 0103667  15.3289 345.0973 14.14662382945127"}}, "geometry": {"type": "Point", "coordinates": [38.22324394127041, 15.554072533485515]}}]}